IRIDIUM 159             
1 43578U 18061K   24183.93937870  .00000559  00000+0  19251-3 0  9996
2 43578  86.3974 355.6138 0001943  86.8582 273.2836 14.34217342310861
IRIDIUM 180             
1 43922U 19002A   24183.79933964 -.00000036  00000+0 -19896-4 0  9997
2 43922  86.3965 292.5519 0001964  96.5959 263.5460 14.34217171286457
IRIDIUM 176             
1 43923U 19002B   24183.93478894  .00001982  00000+0  31021-3 0  9992
2 43923  86.6092 292.5157 0002243  90.9767 269.1707 14.72269945294011
IRIDIUM 168             
1 43924U 19002C   24183.79299754  .00000049  00000+0  10481-4 0  9994
2 43924  86.3969 292.6116 0002254  92.6285 267.5168 14.34216149286430
IRIDIUM 173             
1 43925U 19002D   24183.85007995  .00000089  00000+0  24636-4 0  9997
2 43925  86.3966 292.5061 0002135  93.9079 266.2361 14.34216226286425
IRIDIUM 169             
1 43926U 19002E   24183.94083314  .00000679  00000+0  21547-3 0  9999
2 43926  86.4234 324.0954 0002957 138.4582 221.6842 14.38621164287394
IRIDIUM 172             
1 43927U 19002F   24183.84373848  .00000052  00000+0  11537-4 0  9997
2 43927  86.3965 292.5143 0002161  92.2844 267.8600 14.34216518286436
IRIDIUM 175             
1 43928U 19002G   24183.92914328  .00001908  00000+0  29857-3 0  9995
2 43928  86.1503 264.8247 0002242 103.4944 256.6523 14.72251016294002
